{"fetched_at":"2026-03-30T06:02:59Z","count":15439,"tles":[{"name":"STARLINK-34563","line1":"1 64708U 25142N   26087.83676325  .00004234  00000+0  36232-3 0  9993","line2":"2 64708  69.9999 266.3820 0002661 268.6062  91.4792 14.98339297 42328","category":"Starlink"}]}